CCSDS_OMM_VERS = 2.0
CREATION_DATE  = 
ORIGINATOR     = 

OBJECT_NAME    = CZ-2F R/B
OBJECT_ID      = 2025-246B
CENTER_NAME    = EARTH
REF_FRAME      = TEME
TIME_SYSTEM    = UTC
MEAN_ELEMENT_THEORY = SGP/SGP4

EPOCH          = 2025-11-08T03:46:37.643232
MEAN_MOTION    = 16.17213841
ECCENTRICITY   = .007202
INCLINATION    = 41.4611
RA_OF_ASC_NODE = 223.4014
ARG_OF_PERICENTER = 184.7576
MEAN_ANOMALY   = 175.2605

EPHEMERIS_TYPE = 0
CLASSIFICATION_TYPE = U
NORAD_CAT_ID   = 66264
ELEMENT_SET_NO = 999
REV_AT_EPOCH   = 121
BSTAR          = .6003E-3
MEAN_MOTION_DOT = .1673304E-1
MEAN_MOTION_DDOT = .76554E-5

CCSDS_OMM_VERS = 2.0
CREATION_DATE  = 
ORIGINATOR     = 

OBJECT_NAME    = CMS-03 (GSAT-7R)
OBJECT_ID      = 2025-249A
CENTER_NAME    = EARTH
REF_FRAME      = TEME
TIME_SYSTEM    = UTC
MEAN_ELEMENT_THEORY = SGP/SGP4

EPOCH          = 2025-11-08T10:09:50.357664
MEAN_MOTION    = 3.12265280
ECCENTRICITY   = .668308
INCLINATION    = 21.3311
RA_OF_ASC_NODE = 157.2923
ARG_OF_PERICENTER = 184.1920
MEAN_ANOMALY   = 164.4288

EPHEMERIS_TYPE = 0
CLASSIFICATION_TYPE = U
NORAD_CAT_ID   = 66310
ELEMENT_SET_NO = 999
REV_AT_EPOCH   = 20
BSTAR          = .11096E-2
MEAN_MOTION_DOT = .40854E-3
MEAN_MOTION_DDOT = -.55995E-6

CCSDS_OMM_VERS = 2.0
CREATION_DATE  = 
ORIGINATOR     = 

OBJECT_NAME    = LVM-3 R/B
OBJECT_ID      = 2025-249B
CENTER_NAME    = EARTH
REF_FRAME      = TEME
TIME_SYSTEM    = UTC
MEAN_ELEMENT_THEORY = SGP/SGP4

EPOCH          = 2025-11-02T23:49:54.111360
MEAN_MOTION    = 3.12953676
ECCENTRICITY   = .66878056
INCLINATION    = 21.3965
RA_OF_ASC_NODE = 160.6225
ARG_OF_PERICENTER = 178.2200
MEAN_ANOMALY   = 186.7171

EPHEMERIS_TYPE = 0
CLASSIFICATION_TYPE = U
NORAD_CAT_ID   = 66311
ELEMENT_SET_NO = 999
REV_AT_EPOCH   = 3
BSTAR          = .35582965E-3
MEAN_MOTION_DOT = .26741E-3
MEAN_MOTION_DDOT = .142389E-6

CCSDS_OMM_VERS = 2.0
CREATION_DATE  = 
ORIGINATOR     = 

OBJECT_NAME    = YAOGAN-46
OBJECT_ID      = 2025-250A
CENTER_NAME    = EARTH
REF_FRAME      = TEME
TIME_SYSTEM    = UTC
MEAN_ELEMENT_THEORY = SGP/SGP4

EPOCH          = 2025-11-07T22:39:52.994304
MEAN_MOTION    = 5.35116113
ECCENTRICITY   = .00492211
INCLINATION    = 20.0284
RA_OF_ASC_NODE = 114.3357
ARG_OF_PERICENTER = 118.0370
MEAN_ANOMALY   = 242.4814

EPHEMERIS_TYPE = 0
CLASSIFICATION_TYPE = U
NORAD_CAT_ID   = 66313
ELEMENT_SET_NO = 999
REV_AT_EPOCH   = 33
BSTAR          = 0
MEAN_MOTION_DOT = -.7E-7
MEAN_MOTION_DDOT = 0

CCSDS_OMM_VERS = 2.0
CREATION_DATE  = 
ORIGINATOR     = 

OBJECT_NAME    = CZ-7A R/B
OBJECT_ID      = 2025-250B
CENTER_NAME    = EARTH
REF_FRAME      = TEME
TIME_SYSTEM    = UTC
MEAN_ELEMENT_THEORY = SGP/SGP4

EPOCH          = 2025-11-04T18:44:00.682080
MEAN_MOTION    = 8.58954420
ECCENTRICITY   = .3555489
INCLINATION    = 19.9260
RA_OF_ASC_NODE = 116.0532
ARG_OF_PERICENTER = 130.5060
MEAN_ANOMALY   = 266.3968

EPHEMERIS_TYPE = 0
CLASSIFICATION_TYPE = U
NORAD_CAT_ID   = 66314
ELEMENT_SET_NO = 999
REV_AT_EPOCH   = 19
BSTAR          = .51460467E-3
MEAN_MOTION_DOT = .4554797E-1
MEAN_MOTION_DDOT = -.13031307E-4

CCSDS_OMM_VERS = 2.0
CREATION_DATE  = 
ORIGINATOR     = 

OBJECT_NAME    = SENTINEL-1D
OBJECT_ID      = 2025-251A
CENTER_NAME    = EARTH
REF_FRAME      = TEME
TIME_SYSTEM    = UTC
MEAN_ELEMENT_THEORY = SGP/SGP4

EPOCH          = 2025-11-08T10:44:02.120064
MEAN_MOTION    = 14.59422090
ECCENTRICITY   = .00014
INCLINATION    = 98.1948
RA_OF_ASC_NODE = 317.9105
ARG_OF_PERICENTER = 1.0192
MEAN_ANOMALY   = 359.1010

EPHEMERIS_TYPE = 0
CLASSIFICATION_TYPE = U
NORAD_CAT_ID   = 66315
ELEMENT_SET_NO = 999
REV_AT_EPOCH   = 53
BSTAR          = .85059E-4
MEAN_MOTION_DOT = .357E-5
MEAN_MOTION_DDOT = 0

CCSDS_OMM_VERS = 2.0
CREATION_DATE  = 
ORIGINATOR     = 

OBJECT_NAME    = QPS-SAR-14 (YACHIHOKO-I)
OBJECT_ID      = 2025-252A
CENTER_NAME    = EARTH
REF_FRAME      = TEME
TIME_SYSTEM    = UTC
MEAN_ELEMENT_THEORY = SGP/SGP4

EPOCH          = 2025-11-08T07:39:04.468608
MEAN_MOTION    = 14.97147296
ECCENTRICITY   = .0009925
INCLINATION    = 42.0053
RA_OF_ASC_NODE = 263.9817
ARG_OF_PERICENTER = 283.9906
MEAN_ANOMALY   = 75.9815

EPHEMERIS_TYPE = 0
CLASSIFICATION_TYPE = U
NORAD_CAT_ID   = 66316
ELEMENT_SET_NO = 999
REV_AT_EPOCH   = 37
BSTAR          = .72645E-3
MEAN_MOTION_DOT = .8365E-4
MEAN_MOTION_DDOT = 0

CCSDS_OMM_VERS = 2.0
CREATION_DATE  = 
ORIGINATOR     = 

OBJECT_NAME    = ELECTRON R/B
OBJECT_ID      = 2025-252B
CENTER_NAME    = EARTH
REF_FRAME      = TEME
TIME_SYSTEM    = UTC
MEAN_ELEMENT_THEORY = SGP/SGP4

EPOCH          = 2025-11-08T05:23:50.362944
MEAN_MOTION    = 15.57570843
ECCENTRICITY   = .02413738
INCLINATION    = 42.0029
RA_OF_ASC_NODE = 263.2741
ARG_OF_PERICENTER = 252.6571
MEAN_ANOMALY   = 104.7744

EPHEMERIS_TYPE = 0
CLASSIFICATION_TYPE = U
NORAD_CAT_ID   = 66317
ELEMENT_SET_NO = 999
REV_AT_EPOCH   = 37
BSTAR          = .17870717E-2
MEAN_MOTION_DOT = .583551E-2
MEAN_MOTION_DDOT = .99725581E-4

CCSDS_OMM_VERS = 2.0
CREATION_DATE  = 
ORIGINATOR     = 

OBJECT_NAME    = ELECTRON KICK STAGE R/B
OBJECT_ID      = 2025-252C
CENTER_NAME    = EARTH
REF_FRAME      = TEME
TIME_SYSTEM    = UTC
MEAN_ELEMENT_THEORY = SGP/SGP4

EPOCH          = 2025-11-05T21:56:53.518848
MEAN_MOTION    = 15.58079017
ECCENTRICITY   = .0208812
INCLINATION    = 41.9820
RA_OF_ASC_NODE = 277.1096
ARG_OF_PERICENTER = 235.1722
MEAN_ANOMALY   = 122.9324

EPHEMERIS_TYPE = 0
CLASSIFICATION_TYPE = U
NORAD_CAT_ID   = 66318
ELEMENT_SET_NO = 999
REV_AT_EPOCH   = 1
BSTAR          = .26876E-3
MEAN_MOTION_DOT = .5927E-3
MEAN_MOTION_DDOT = .78551E-5

