CZ-2F R/B               
1 66264U 25246B   25312.15738013  .01673304  76554-5  60030-3 0  9992
2 66264  41.4611 223.4014 0072020 184.7576 175.2605 16.17213841  1212
CMS-03 (GSAT-7R)        
1 66310U 25249A   25312.42349951  .00040854 -55995-6  11096-2 0  9998
2 66310  21.3311 157.2923 6683080 184.1920 164.4288  3.12265280   208
LVM-3 R/B               
1 66311U 25249B   25306.99298740  .00026741  14239-6  35583-3 0  9995
2 66311  21.3965 160.6225 6687805 178.2200 186.7171  3.12953676    33
YAOGAN-46               
1 66313U 25250A   25311.94436336 -.00000007  00000+0  00000+0 0  9999
2 66313  20.0284 114.3357 0049221 118.0370 242.4814  5.35116113   336
CZ-7A R/B               
1 66314U 25250B   25308.78056345  .04554797 -13031-4  51460-3 0  9993
2 66314  19.9260 116.0532 3555489 130.5060 266.3968  8.58954420   196
SENTINEL-1D             
1 66315U 25251A   25312.44724676  .00000357  00000+0  85059-4 0  9994
2 66315  98.1948 317.9105 0001400   1.0192 359.1010 14.59422090   539
QPS-SAR-14 (YACHIHOKO-I)
1 66316U 25252A   25312.31880172  .00008365  00000+0  72645-3 0  9999
2 66316  42.0053 263.9817 0009925 283.9906  75.9815 14.97147296   371
ELECTRON R/B            
1 66317U 25252B   25312.22488846  .00583551  99726-4  17871-2 0  9994
2 66317  42.0029 263.2741 0241373 252.6571 104.7744 15.57570843   377
ELECTRON KICK STAGE R/B 
1 66318U 25252C   25309.91450832  .00059270  78551-5  26876-3 0  9997
2 66318  41.9820 277.1096 0208812 235.1722 122.9324 15.58079017    12
